COSMOS 2251 DEB         
1 37491U 93036BLU 17345.62993856  .00000450  00000-0  37541-3 0  9995
2 37491  73.9093  93.3156 0334849 275.9154  80.3895 13.68443110404673
